STARLINK-31166          
1 58789U 24012C   26068.27101481 -.00000258  00000+0  13935-6 0  9994
2 58789  43.0012 167.4663 0001416 296.9428  63.1279 15.27574391121178
OTTER                   
1 62623U 25009Q   26068.72300813  .00012198  00000+0  45151-3 0  9990
2 62623  97.4065 151.3812 0003573 310.7710  49.3219 15.27809545 63722
